{"type": "FeatureCollection", "features": [ {"type": "Feature", "properties": {"norad_id": 31198, "name": "FENGYUN 1C DEB", "group": "fengyun-1c-debris", "lat": 49.476898824024474, "lon": 74.92880311478487, "alt_km": 863.1681830145199, "timestamp": "2025-12-06T16:45:43.002982+00:00", "meta": {"OBJECT_NAME": "FENGYUN 1C DEB", "OBJECT_ID": "1999-025BKC", "EPOCH": "2025-12-06T00:48:58.502016", "MEAN_MOTION": 13.7551923, "ECCENTRICITY": 0.0204169, "INCLINATION": 98.6127, "RA_OF_ASC_NODE": 84.5407, "ARG_OF_PERICENTER": 9.5635, "MEAN_ANOMALY": 350.9314, "EPHEMERIS_TYPE": 0, "CLASSIFICATION_TYPE": "U", "NORAD_CAT_ID": 31198, "ELEMENT_SET_NO": 999, "REV_AT_EPOCH": 62661, "BSTAR": 0.00014781733, "MEAN_MOTION_DOT": 1.27e-06, "MEAN_MOTION_DDOT": 0}, "tle": {"line1": "1 31198U 99025BKC 25340.03401044  .00000127  00000+0  14782-3 0  9991", "line2": "2 31198  98.6127  84.5407 0204169   9.5635 350.9314 13.75519230626617"}}, "geometry": {"type": "Point", "coordinates": [74.92880311478487, 49.476898824024474]}}, {"type": "Feature", "properties": {"norad_id": 31199, "name": "FENGYUN 1C DEB", "group": "fengyun-1c-debris", "lat": 14.30835107350434, "lon": 145.9079839560603, "alt_km": 877.0572179066794, "timestamp": "2025-12-06T16:45:43.002993+00:00", "meta": {"OBJECT_NAME": "FENGYUN 1C DEB", "OBJECT_ID": "1999-025BKD", "EPOCH": "2025-12-05T16:58:40.008864", "MEAN_MOTION": 14.09979297, "ECCENTRICITY": 0.00635718, "INCLINATION": 98.7162, "RA_OF_ASC_NODE": 322.7056, "ARG_OF_PERICENTER": 279.9042, "MEAN_ANOMALY": 258.7122, "EPHEMERIS_TYPE": 0, "CLASSIFICATION_TYPE": "U", "NORAD_CAT_ID": 31199, "ELEMENT_SET_NO": 999, "REV_AT_EPOCH": 96060, "BSTAR": 0.00037158052, "MEAN_MOTION_DOT": 6.24e-06, "MEAN_MOTION_DDOT": 0}, "tle": {"line1": "1 31199U 99025BKD 25339.70740751  .00000624  00000+0  37158-3 0  9999", "line2": "2 31199  98.7162 322.7056 0063571 279.9042 258.7122 14.09979297960603"}}, "geometry": {"type": "Point", "coordinates": [145.9079839560603, 14.30835107350434]}}, {"type": "Feature", "properties": {"norad_id": 31201, "name": "FENGYUN 1C DEB", "group": "fengyun-1c-debris", "lat": -11.253682395551222, "lon": 19.50596115221653, "alt_km": 881.2186462287555, "timestamp": "2025-12-06T16:45:43.003003+00:00", "meta": {"OBJECT_NAME": "FENGYUN 1C DEB", "OBJECT_ID": "1999-025BKF", "EPOCH": "2025-12-05T13:13:56.277120", "MEAN_MOTION": 14.35106155, "ECCENTRICITY": 0.01430996, "INCLINATION": 99.0026, "RA_OF_ASC_NODE": 200.1176, "ARG_OF_PERICENTER": 12.2515, "MEAN_ANOMALY": 16.2353, "EPHEMERIS_TYPE": 0, "CLASSIFICATION_TYPE": "U", "NORAD_CAT_ID": 31201, "ELEMENT_SET_NO": 999, "REV_AT_EPOCH": 97148, "BSTAR": 0.001614262, "MEAN_MOTION_DOT": 5.125e-05, "MEAN_MOTION_DDOT": 0}, "tle": {"line1": "1 31201U 99025BKF 25339.55134580  .00005125  00000+0  16143-2 0  9994", "line2": "2 31201  99.0026 200.1176 0143099  12.2515  16.2353 14.35106155971484"}}, "geometry": {"type": "Point", "coordinates": [19.50596115221653, -11.253682395551222]}}, {"type": "Feature", "properties": {"norad_id": 31202, "name": "FENGYUN 1C DEB", "group": "fengyun-1c-debris", "lat": 1.7561782707974942, "lon": 26.806373007525934, "alt_km": 665.4411351875524, "timestamp": "2025-12-06T16:45:43.003014+00:00", "meta": {"OBJECT_NAME": "FENGYUN 1C DEB", "OBJECT_ID": "1999-025BKG", "EPOCH": "2025-12-06T02:19:25.804416", "MEAN_MOTION": 14.83905937, "ECCENTRICITY": 0.00678388, "INCLINATION": 96.574, "RA_OF_ASC_NODE": 26.513, "ARG_OF_PERICENTER": 199.6704, "MEAN_ANOMALY": 190.2927, "EPHEMERIS_TYPE": 0, "CLASSIFICATION_TYPE": "U", "NORAD_CAT_ID": 31202, "ELEMENT_SET_NO": 999, "REV_AT_EPOCH": 99056, "BSTAR": 0.0018090493, "MEAN_MOTION_DOT": 0.00015634, "MEAN_MOTION_DDOT": 0}, "tle": {"line1": "1 31202U 99025BKG 25340.09682644  .00015634  00000+0  18090-2 0  9994", "line2": "2 31202  96.5740  26.5130 0067838 199.6704 190.2927 14.83905937990564"}}, "geometry": {"type": "Point", "coordinates": [26.806373007525934, 1.7561782707974942]}}, {"type": "Feature", "properties": {"norad_id": 31205, "name": "FENGYUN 1C DEB", "group": "fengyun-1c-debris", "lat": 18.932251275360578, "lon": -103.24713545067056, "alt_km": 742.7490899096329, "timestamp": "2025-12-06T16:45:43.003024+00:00", "meta": {"OBJECT_NAME": "FENGYUN 1C DEB", "OBJECT_ID": "1999-025BKK", "EPOCH": "2025-12-04T11:43:07.635648", "MEAN_MOTION": 14.23946313, "ECCENTRICITY": 0.0161551, "INCLINATION": 99.2293, "RA_OF_ASC_NODE": 71.2361, "ARG_OF_PERICENTER": 221.0534, "MEAN_ANOMALY": 137.8393, "EPHEMERIS_TYPE": 0, "CLASSIFICATION_TYPE": "U", "NORAD_CAT_ID": 31205, "ELEMENT_SET_NO": 999, "REV_AT_EPOCH": 97093, "BSTAR": 0.00032977, "MEAN_MOTION_DOT": 8.15e-06, "MEAN_MOTION_DDOT": 0}, "tle": {"line1": "1 31205U 99025BKK 25338.48828282  .00000815  00000+0  32977-3 0  9993", "line2": "2 31205  99.2293  71.2361 0161551 221.0534 137.8393 14.23946313970931"}}, "geometry": {"type": "Point", "coordinates": [-103.24713545067056, 18.932251275360578]}}, {"type": "Feature", "properties": {"norad_id": 31206, "name": "FENGYUN 1C DEB", "group": "fengyun-1c-debris", "lat": -5.257780520543838, "lon": 67.60029117533976, "alt_km": 814.6495400979356, "timestamp": "2025-12-06T16:45:43.003034+00:00", "meta": {"OBJECT_NAME": "FENGYUN 1C DEB", "OBJECT_ID": "1999-025BKL", "EPOCH": "2025-12-05T04:53:54.457728", "MEAN_MOTION": 14.40442907, "ECCENTRICITY": 0.00782265, "INCLINATION": 98.8439, "RA_OF_ASC_NODE": 246.8775, "ARG_OF_PERICENTER": 23.9357, "MEAN_ANOMALY": 336.5436, "EPHEMERIS_TYPE": 0, "CLASSIFICATION_TYPE": "U", "NORAD_CAT_ID": 31206, "ELEMENT_SET_NO": 999, "REV_AT_EPOCH": 97737, "BSTAR": 0.0014448872, "MEAN_MOTION_DOT": 4.715e-05, "MEAN_MOTION_DDOT": 0}, "tle": {"line1": "1 31206U 99025BKL 25339.20410252  .00004715  00000+0  14449-2 0  9995", "line2": "2 31206  98.8439 246.8775 0078226  23.9357 336.5436 14.40442907977376"}}, "geometry": {"type": "Point", "coordinates": [67.60029117533976, -5.257780520543838]}}, {"type": "Feature", "properties": {"norad_id": 31208, "name": "FENGYUN 1C DEB", "group": "fengyun-1c-debris", "lat": -35.76886394869711, "lon": 130.43214851036248, "alt_km": 685.8031740834158, "timestamp": "2025-12-06T16:45:43.003044+00:00", "meta": {"OBJECT_NAME": "FENGYUN 1C DEB", "OBJECT_ID": "1999-025BKN", "EPOCH": "2025-12-05T08:12:17.064288", "MEAN_MOTION": 14.61500121, "ECCENTRICITY": 0.00156947, "INCLINATION": 99.2421, "RA_OF_ASC_NODE": 122.1816, "ARG_OF_PERICENTER": 288.3899, "MEAN_ANOMALY": 101.866, "EPHEMERIS_TYPE": 0, "CLASSIFICATION_TYPE": "U", "NORAD_CAT_ID": 31208, "ELEMENT_SET_NO": 999, "REV_AT_EPOCH": 70371, "BSTAR": 0.0053426924, "MEAN_MOTION_DOT": 0.00026586, "MEAN_MOTION_DDOT": 0}, "tle": {"line1": "1 31208U 99025BKN 25339.34186417  .00026586  00000+0  53427-2 0  9994", "line2": "2 31208  99.2421 122.1816 0015694 288.3899 101.8660 14.61500121703717"}}, "geometry": {"type": "Point", "coordinates": [130.43214851036248, -35.76886394869711]}}, {"type": "Feature", "properties": {"norad_id": 31209, "name": "FENGYUN 1C DEB", "group": "fengyun-1c-debris", "lat": -22.645387350327525, "lon": -108.22191303705952, "alt_km": 767.2198921074423, "timestamp": "2025-12-06T16:45:43.003054+00:00", "meta": {"OBJECT_NAME": "FENGYUN 1C DEB", "OBJECT_ID": "1999-025BKP", "EPOCH": "2025-12-04T12:14:49.860384", "MEAN_MOTION": 14.43258413, "ECCENTRICITY": 0.0021369, "INCLINATION": 98.8853, "RA_OF_ASC_NODE": 73.2388, "ARG_OF_PERICENTER": 10.8344, "MEAN_ANOMALY": 349.3301, "EPHEMERIS_TYPE": 0, "CLASSIFICATION_TYPE": "U", "NORAD_CAT_ID": 31209, "ELEMENT_SET_NO": 999, "REV_AT_EPOCH": 64689, "BSTAR": 0.0067448, "MEAN_MOTION_DOT": 0.00022796, "MEAN_MOTION_DDOT": 0}, "tle": {"line1": "1 31209U 99025BKP 25338.51029931  .00022796  00000+0  67448-2 0  9997", "line2": "2 31209  98.8853  73.2388 0021369  10.8344 349.3301 14.43258413646891"}}, "geometry": {"type": "Point", "coordinates": [-108.22191303705952, -22.645387350327525]}}, {"type": "Feature", "properties": {"norad_id": 31210, "name": "FENGYUN 1C DEB", "group": "fengyun-1c-debris", "lat": 27.806360319719392, "lon": -22.745601745673067, "alt_km": 861.1892846038763, "timestamp": "2025-12-06T16:45:43.003064+00:00", "meta": {"OBJECT_NAME": "FENGYUN 1C DEB", "OBJECT_ID": "1999-025BKQ", "EPOCH": "2025-12-05T23:44:47.351616", "MEAN_MOTION": 14.11982708, "ECCENTRICITY": 0.00168683, "INCLINATION": 98.7185, "RA_OF_ASC_NODE": 341.207, "ARG_OF_PERICENTER": 174.154, "MEAN_ANOMALY": 212.402, "EPHEMERIS_TYPE": 0, "CLASSIFICATION_TYPE": "U", "NORAD_CAT_ID": 31210, "ELEMENT_SET_NO": 999, "REV_AT_EPOCH": 95872, "BSTAR": 0.00054435635, "MEAN_MOTION_DOT": 9.55e-06, "MEAN_MOTION_DDOT": 0}, "tle": {"line1": "1 31210U 99025BKQ 25339.98943694  .00000955  00000+0  54436-3 0  9999", "line2": "2 31210  98.7185 341.2070 0016868 174.1540 212.4020 14.11982708958728"}}, "geometry": {"type": "Point", "coordinates": [-22.745601745673067, 27.806360319719392]}}, {"type": "Feature", "properties": {"norad_id": 31211, "name": "FENGYUN 1C DEB", "group": "fengyun-1c-debris", "lat": 2.001847730962683, "lon": 16.422604831216926, "alt_km": 836.8118866521163, "timestamp": "2025-12-06T16:45:43.003075+00:00", "meta": {"OBJECT_NAME": "FENGYUN 1C DEB", "OBJECT_ID": "1999-025BKR", "EPOCH": "2025-12-02T07:54:14.922432", "MEAN_MOTION": 14.19985775, "ECCENTRICITY": 0.00511166, "INCLINATION": 98.6742, "RA_OF_ASC_NODE": 12.4462, "ARG_OF_PERICENTER": 118.9096, "MEAN_ANOMALY": 241.7222, "EPHEMERIS_TYPE": 0, "CLASSIFICATION_TYPE": "U", "NORAD_CAT_ID": 31211, "ELEMENT_SET_NO": 999, "REV_AT_EPOCH": 63145, "BSTAR": 0.001279389, "MEAN_MOTION_DOT": 2.714e-05, "MEAN_MOTION_DDOT": 0}, "tle": {"line1": "1 31211U 99025BKR 25336.32933938  .00002714  00000+0  12794-2 0  9990", "line2": "2 31211  98.6742  12.4462 0051116 118.9096 241.7222 14.19985775631458"}}, "geometry": {"type": "Point", "coordinates": [16.422604831216926, 2.001847730962683]}}]}